TRANSPORTER-10 OBJECT AD
1 59125U 24043AD  26068.86032889  .00011954  00000+0  36311-3 0  9997
2 59125  97.5470 207.3753 0008984 221.4908 138.5653 15.34189901112026
STARLINK-35549          
1 66139U 25237AB  26068.29769729  .00030976  00000+0  10538-2 0  9990
2 66139  53.1611  41.2195 0001277  85.3539 274.7608 15.30194621 22556
